{"type": "FeatureCollection", "features": [ {"type": "Feature", "properties": {"norad_id": 30272, "name": "FENGYUN 1C DEB", "group": "fengyun-1c-debris", "lat": 75.99252022986258, "lon": 16.93727519066541, "alt_km": 801.5958255200621, "timestamp": "2025-12-14T03:55:53.062515+00:00", "meta": {"OBJECT_NAME": "FENGYUN 1C DEB", "OBJECT_ID": "1999-025YH", "EPOCH": "2025-12-13T03:47:48.703776", "MEAN_MOTION": 14.14715198, "ECCENTRICITY": 0.00509246, "INCLINATION": 98.9009, "RA_OF_ASC_NODE": 54.8512, "ARG_OF_PERICENTER": 102.671, "MEAN_ANOMALY": 258.0163, "EPHEMERIS_TYPE": 0, "CLASSIFICATION_TYPE": "U", "NORAD_CAT_ID": 30272, "ELEMENT_SET_NO": 999, "REV_AT_EPOCH": 96862, "BSTAR": 0.0016627515, "MEAN_MOTION_DOT": 3.198e-05, "MEAN_MOTION_DDOT": 0}, "tle": {"line1": "1 30272U 99025YH  25347.15820259  .00003198  00000+0  16628-2 0  9997", "line2": "2 30272  98.9009  54.8512 0050924 102.6710 258.0163 14.14715198968620"}}, "geometry": {"type": "Point", "coordinates": [16.93727519066541, 75.99252022986258]}}, {"type": "Feature", "properties": {"norad_id": 30273, "name": "FENGYUN 1C DEB", "group": "fengyun-1c-debris", "lat": -4.533607112409288, "lon": 3.391958495533522, "alt_km": 902.829686026651, "timestamp": "2025-12-14T03:55:53.062526+00:00", "meta": {"OBJECT_NAME": "FENGYUN 1C DEB", "OBJECT_ID": "1999-025YJ", "EPOCH": "2025-12-12T21:42:21.056832", "MEAN_MOTION": 14.02661002, "ECCENTRICITY": 0.00604025, "INCLINATION": 98.8408, "RA_OF_ASC_NODE": 1.4625, "ARG_OF_PERICENTER": 249.0207, "MEAN_ANOMALY": 229.9309, "EPHEMERIS_TYPE": 0, "CLASSIFICATION_TYPE": "U", "NORAD_CAT_ID": 30273, "ELEMENT_SET_NO": 999, "REV_AT_EPOCH": 96531, "BSTAR": 0.0006679395, "MEAN_MOTION_DOT": 1.004e-05, "MEAN_MOTION_DDOT": 0}, "tle": {"line1": "1 30273U 99025YJ  25346.90441038  .00001004  00000+0  66794-3 0  9998", "line2": "2 30273  98.8408   1.4625 0060402 249.0207 229.9309 14.02661002965318"}}, "geometry": {"type": "Point", "coordinates": [3.391958495533522, -4.533607112409288]}}, {"type": "Feature", "properties": {"norad_id": 30274, "name": "FENGYUN 1C DEB", "group": "fengyun-1c-debris", "lat": 67.50288108496244, "lon": 93.6778163180249, "alt_km": 716.0075978962668, "timestamp": "2025-12-14T03:55:53.062536+00:00", "meta": {"OBJECT_NAME": "FENGYUN 1C DEB", "OBJECT_ID": "1999-025YK", "EPOCH": "2025-12-13T08:00:49.607136", "MEAN_MOTION": 14.51657311, "ECCENTRICITY": 0.00047708, "INCLINATION": 99.3008, "RA_OF_ASC_NODE": 116.0694, "ARG_OF_PERICENTER": 209.059, "MEAN_ANOMALY": 205.8335, "EPHEMERIS_TYPE": 0, "CLASSIFICATION_TYPE": "U", "NORAD_CAT_ID": 30274, "ELEMENT_SET_NO": 999, "REV_AT_EPOCH": 98219, "BSTAR": 0.0045648174, "MEAN_MOTION_DOT": 0.00018306, "MEAN_MOTION_DDOT": 0}, "tle": {"line1": "1 30274U 99025YK  25347.33390749  .00018306  00000+0  45648-2 0  9996", "line2": "2 30274  99.3008 116.0694 0004770 209.0590 205.8335 14.51657311982196"}}, "geometry": {"type": "Point", "coordinates": [93.6778163180249, 67.50288108496244]}}, {"type": "Feature", "properties": {"norad_id": 30275, "name": "FENGYUN 1C DEB", "group": "fengyun-1c-debris", "lat": -11.432134004940114, "lon": 74.20614305224504, "alt_km": 772.8327527228194, "timestamp": "2025-12-14T03:55:53.062546+00:00", "meta": {"OBJECT_NAME": "FENGYUN 1C DEB", "OBJECT_ID": "1999-025YL", "EPOCH": "2025-12-12T22:21:19.262880", "MEAN_MOTION": 14.45299699, "ECCENTRICITY": 0.00398774, "INCLINATION": 98.6281, "RA_OF_ASC_NODE": 71.1947, "ARG_OF_PERICENTER": 185.9532, "MEAN_ANOMALY": 234.1953, "EPHEMERIS_TYPE": 0, "CLASSIFICATION_TYPE": "U", "NORAD_CAT_ID": 30275, "ELEMENT_SET_NO": 999, "REV_AT_EPOCH": 98087, "BSTAR": 0.0033635525, "MEAN_MOTION_DOT": 0.00011898, "MEAN_MOTION_DDOT": 0}, "tle": {"line1": "1 30275U 99025YL  25346.93147295  .00011898  00000+0  33636-2 0  9991", "line2": "2 30275  98.6281  71.1947 0039877 185.9532 234.1953 14.45299699980876"}}, "geometry": {"type": "Point", "coordinates": [74.20614305224504, -11.432134004940114]}}, {"type": "Feature", "properties": {"norad_id": 30276, "name": "FENGYUN 1C DEB", "group": "fengyun-1c-debris", "lat": -17.05603951479432, "lon": -122.99047454006454, "alt_km": 812.5191587975323, "timestamp": "2025-12-14T03:55:53.062557+00:00", "meta": {"OBJECT_NAME": "FENGYUN 1C DEB", "OBJECT_ID": "1999-025YM", "EPOCH": "2025-12-13T03:27:15.806880", "MEAN_MOTION": 14.27030547, "ECCENTRICITY": 0.00250832, "INCLINATION": 98.8588, "RA_OF_ASC_NODE": 58.7196, "ARG_OF_PERICENTER": 90.4236, "MEAN_ANOMALY": 269.9818, "EPHEMERIS_TYPE": 0, "CLASSIFICATION_TYPE": "U", "NORAD_CAT_ID": 30276, "ELEMENT_SET_NO": 999, "REV_AT_EPOCH": 97536, "BSTAR": 0.0019435685, "MEAN_MOTION_DOT": 4.704e-05, "MEAN_MOTION_DDOT": 0}, "tle": {"line1": "1 30276U 99025YM  25347.14393295  .00004704  00000+0  19436-2 0  9999", "line2": "2 30276  98.8588  58.7196 0025083  90.4236 269.9818 14.27030547975360"}}, "geometry": {"type": "Point", "coordinates": [-122.99047454006454, -17.05603951479432]}}, {"type": "Feature", "properties": {"norad_id": 30277, "name": "FENGYUN 1C DEB", "group": "fengyun-1c-debris", "lat": -17.801118067171053, "lon": -124.07203344095265, "alt_km": 770.0276933106879, "timestamp": "2025-12-14T03:55:53.062567+00:00", "meta": {"OBJECT_NAME": "FENGYUN 1C DEB", "OBJECT_ID": "1999-025YN", "EPOCH": "2025-12-12T03:34:47.110368", "MEAN_MOTION": 14.13573468, "ECCENTRICITY": 0.01240698, "INCLINATION": 98.9727, "RA_OF_ASC_NODE": 56.8148, "ARG_OF_PERICENTER": 179.4504, "MEAN_ANOMALY": 211.2264, "EPHEMERIS_TYPE": 0, "CLASSIFICATION_TYPE": "U", "NORAD_CAT_ID": 30277, "ELEMENT_SET_NO": 999, "REV_AT_EPOCH": 96781, "BSTAR": 0.002248411, "MEAN_MOTION_DOT": 4.518e-05, "MEAN_MOTION_DDOT": 0}, "tle": {"line1": "1 30277U 99025YN  25346.14915637  .00004518  00000+0  22484-2 0  9999", "line2": "2 30277  98.9727  56.8148 0124069 179.4504 211.2264 14.13573468967818"}}, "geometry": {"type": "Point", "coordinates": [-124.07203344095265, -17.801118067171053]}}, {"type": "Feature", "properties": {"norad_id": 30279, "name": "FENGYUN 1C DEB", "group": "fengyun-1c-debris", "lat": 71.83132573011437, "lon": -106.47604422779956, "alt_km": 650.4728162862693, "timestamp": "2025-12-14T03:55:53.062577+00:00", "meta": {"OBJECT_NAME": "FENGYUN 1C DEB", "OBJECT_ID": "1999-025YQ", "EPOCH": "2025-12-13T08:02:16.641312", "MEAN_MOTION": 14.23103745, "ECCENTRICITY": 0.02198422, "INCLINATION": 99.1497, "RA_OF_ASC_NODE": 282.0749, "ARG_OF_PERICENTER": 70.9736, "MEAN_ANOMALY": 78.8454, "EPHEMERIS_TYPE": 0, "CLASSIFICATION_TYPE": "U", "NORAD_CAT_ID": 30279, "ELEMENT_SET_NO": 999, "REV_AT_EPOCH": 97619, "BSTAR": 0.0011823033, "MEAN_MOTION_DOT": 3.372e-05, "MEAN_MOTION_DDOT": 0}, "tle": {"line1": "1 30279U 99025YQ  25347.33491483  .00003372  00000+0  11823-2 0  9993", "line2": "2 30279  99.1497 282.0749 0219842  70.9736  78.8454 14.23103745976190"}}, "geometry": {"type": "Point", "coordinates": [-106.47604422779956, 71.83132573011437]}}, {"type": "Feature", "properties": {"norad_id": 30280, "name": "FENGYUN 1C DEB", "group": "fengyun-1c-debris", "lat": 74.34612820206642, "lon": -55.958785288905844, "alt_km": 913.3932410762254, "timestamp": "2025-12-14T03:55:53.062588+00:00", "meta": {"OBJECT_NAME": "FENGYUN 1C DEB", "OBJECT_ID": "1999-025YR", "EPOCH": "2025-12-12T22:37:42.564864", "MEAN_MOTION": 13.98330294, "ECCENTRICITY": 0.00804687, "INCLINATION": 98.7752, "RA_OF_ASC_NODE": 336.3238, "ARG_OF_PERICENTER": 329.0266, "MEAN_ANOMALY": 84.2381, "EPHEMERIS_TYPE": 0, "CLASSIFICATION_TYPE": "U", "NORAD_CAT_ID": 30280, "ELEMENT_SET_NO": 999, "REV_AT_EPOCH": 96409, "BSTAR": 0.00016701529, "MEAN_MOTION_DOT": 2.03e-06, "MEAN_MOTION_DDOT": 0}, "tle": {"line1": "1 30280U 99025YR  25346.94285376  .00000203  00000+0  16702-3 0  9995", "line2": "2 30280  98.7752 336.3238 0080468 329.0266  84.2381 13.98330294964091"}}, "geometry": {"type": "Point", "coordinates": [-55.958785288905844, 74.34612820206642]}}, {"type": "Feature", "properties": {"norad_id": 30281, "name": "FENGYUN 1C DEB", "group": "fengyun-1c-debris", "lat": 0.07214528560803875, "lon": -22.072620541720294, "alt_km": 872.8147400410835, "timestamp": "2025-12-14T03:55:53.062598+00:00", "meta": {"OBJECT_NAME": "FENGYUN 1C DEB", "OBJECT_ID": "1999-025YS", "EPOCH": "2025-12-12T23:14:50.235936", "MEAN_MOTION": 14.10475361, "ECCENTRICITY": 0.00279527, "INCLINATION": 98.7567, "RA_OF_ASC_NODE": 336.7745, "ARG_OF_PERICENTER": 236.4117, "MEAN_ANOMALY": 178.1676, "EPHEMERIS_TYPE": 0, "CLASSIFICATION_TYPE": "U", "NORAD_CAT_ID": 30281, "ELEMENT_SET_NO": 999, "REV_AT_EPOCH": 97224, "BSTAR": 0.00033375523, "MEAN_MOTION_DOT": 5.53e-06, "MEAN_MOTION_DDOT": 0}, "tle": {"line1": "1 30281U 99025YS  25346.96863699  .00000553  00000+0  33376-3 0  9992", "line2": "2 30281  98.7567 336.7745 0027952 236.4117 178.1676 14.10475361972244"}}, "geometry": {"type": "Point", "coordinates": [-22.072620541720294, 0.07214528560803875]}}, {"type": "Feature", "properties": {"norad_id": 30282, "name": "FENGYUN 1C DEB", "group": "fengyun-1c-debris", "lat": 51.45606023300222, "lon": -177.8299758148166, "alt_km": 939.4687288823616, "timestamp": "2025-12-14T03:55:53.062609+00:00", "meta": {"OBJECT_NAME": "FENGYUN 1C DEB", "OBJECT_ID": "1999-025YT", "EPOCH": "2025-12-13T06:59:49.384320", "MEAN_MOTION": 14.12975528, "ECCENTRICITY": 0.02102862, "INCLINATION": 98.5017, "RA_OF_ASC_NODE": 350.5196, "ARG_OF_PERICENTER": 0.5236, "MEAN_ANOMALY": 10.8112, "EPHEMERIS_TYPE": 0, "CLASSIFICATION_TYPE": "U", "NORAD_CAT_ID": 30282, "ELEMENT_SET_NO": 999, "REV_AT_EPOCH": 97359, "BSTAR": 0.00055650196, "MEAN_MOTION_DOT": 1.237e-05, "MEAN_MOTION_DDOT": 0}, "tle": {"line1": "1 30282U 99025YT  25347.29154380  .00001237  00000+0  55650-3 0  9999", "line2": "2 30282  98.5017 350.5196 0210286   0.5236  10.8112 14.12975528973591"}}, "geometry": {"type": "Point", "coordinates": [-177.8299758148166, 51.45606023300222]}}]}